$$SOE
2460728.500000000, A.D. 2025-Feb-22 00:00:00.0000, -2.483472417003290E+08, 2.398767916796631E+08, 1.191350642407566E+07,
2460735.500000000, A.D. 2025-Mar-01 00:00:00.0000, -2.563576962823744E+08, 2.348528469372550E+08, 1.039220277600953E+07,
2460742.500000000, A.D. 2025-Mar-08 00:00:00.0000, -2.640723633692900E+08, 2.295579480142542E+08, 8.858901299544722E+06,
2460749.500000000, A.D. 2025-Mar-15 00:00:00.0000, -2.714880143682069E+08, 2.240031406501266E+08, 7.315561988015667E+06,
2460756.500000000, A.D. 2025-Mar-22 00:00:00.0000, -2.786015441858274E+08, 2.181990868659576E+08, 5.764075651423231E+06,
2460763.500000000, A.D. 2025-Mar-29 00:00:00.0000, -2.854099469802628E+08, 2.121560956565867E+08, 4.206271126625299E+06,
2460770.500000000, A.D. 2025-Apr-05 00:00:00.0000, -2.919102927862592E+08, 2.058841528543806E+08, 2.643921905050546E+06,
2460777.500000000, A.D. 2025-Apr-12 00:00:00.0000, -2.980997066031941E+08, 1.993929504442949E+08, 1.078752419862345E+06,
2460784.500000000, A.D. 2025-Apr-19 00:00:00.0000, -3.039753498370770E+08, 1.926919146187282E+08, -4.875560106315464E+05,
2460791.500000000, A.D. 2025-Apr-26 00:00:00.0000, -3.095344035656397E+08, 1.857902325274329E+08, -2.053359577139236E+06,
2460798.500000000, A.D. 2025-May-03 00:00:00.0000, -3.147740532894928E+08, 1.786968778925636E+08, -3.617046676051356E+06,
2460805.500000000, A.D. 2025-May-10 00:00:00.0000, -3.196914749481229E+08, 1.714206356440356E+08, -5.177032870078519E+06,
2460812.500000000, A.D. 2025-May-17 00:00:00.0000, -3.242838219969772E+08, 1.639701256770350E+08, -6.731756082152367E+06,
2460819.500000000, A.D. 2025-May-24 00:00:00.0000, -3.285482132264068E+08, 1.563538258168834E+08, -8.279672008133754E+06,
2460826.500000000, A.D. 2025-May-31 00:00:00.0000, -3.324817207779753E+08, 1.485800944391095E+08, -9.819249728512034E+06,
2460833.500000000, A.D. 2025-Jun-07 00:00:00.0000, -3.360813586492335E+08, 1.406571940840362E+08, -1.134896735295857E+07,
2460840.500000000, A.D. 2025-Jun-14 00:00:00.0000, -3.393440739592843E+08, 1.325933155332787E+08, -1.286730750634509E+07,
2460847.500000000, A.D. 2025-Jun-21 00:00:00.0000, -3.422667396803046E+08, 1.243965992153060E+08, -1.437275300770580E+07,
2460854.500000000, A.D. 2025-Jun-28 00:00:00.0000, -3.448461456328282E+08, 1.160751558443029E+08, -1.586378285715383E+07,
2460861.500000000, A.D. 2025-Jul-05 00:00:00.0000, -3.470789891981909E+08, 1.076370885846759E+08, -1.733886818786569E+07,
2460868.500000000, A.D. 2025-Jul-12 00:00:00.0000, -3.489618668946612E+08, 9.909051607788634E+07, -1.879646811385181E+07,
2460875.500000000, A.D. 2025-Jul-19 00:00:00.0000, -3.504912665928846E+08, 9.044359590905577E+07, -2.023502551230957E+07,
2460882.500000000, A.D. 2025-Jul-26 00:00:00.0000, -3.516635601322733E+08, 8.170454861624749E+07, -2.165296273807238E+07,
2460889.500000000, A.D. 2025-Aug-02 00:00:00.0000, -3.524749962540631E+08, 7.288168243143781E+07, -2.304867724741331E+07,
2460896.500000000, A.D. 2025-Aug-09 00:00:00.0000, -3.529216938197911E+08, 6.398341891695821E+07, -2.442053710694339E+07,
2460903.500000000, A.D. 2025-Aug-16 00:00:00.0000, -3.529996352420153E+08, 5.501831962625626E+07, -2.576687637131644E+07,
2460910.500000000, A.D. 2025-Aug-23 00:00:00.0000, -3.527046598506802E+08, 4.599511401356480E+07, -2.708599032547579E+07,
2460917.500000000, A.D. 2025-Aug-30 00:00:00.0000, -3.520324568955535E+08, 3.692272953295639E+07, -2.837613053192087E+07,
2460924.500000000, A.D. 2025-Sep-06 00:00:00.0000, -3.509785596481575E+08, 2.781032517392641E+07, -2.963549943814012E+07,
2460931.500000000, A.D. 2025-Sep-13 00:00:00.0000, -3.495383423411955E+08, 1.866732622170313E+07, -3.086224455967733E+07,
2460938.500000000, A.D. 2025-Sep-20 00:00:00.0000, -3.477070167635365E+08, 9.503458900831779E+06, -3.205445263754715E+07,
2460945.500000000, A.D. 2025-Sep-27 00:00:00.0000, -3.454796275624452E+08, 3.287883512471244E+05, -3.321014357287116E+07,
2460952.500000000, A.D. 2025-Oct-04 00:00:00.0000, -3.428510484080009E+08, -8.846239154274844E+06, -3.432726386652502E+07,
2460959.500000000, A.D. 2025-Oct-11 00:00:00.0000, -3.398159795765136E+08, -1.801075028434226E+07, -3.540367956270222E+07,
2460966.500000000, A.D. 2025-Oct-18 00:00:00.0000, -3.363689469019437E+08, -2.715339482673457E+07, -3.643716869924710E+07,
2460973.500000000, A.D. 2025-Oct-25 00:00:00.0000, -3.325043022421309E+08, -3.626229143792367E+07, -3.742541322789426E+07,
2460980.500000000, A.D. 2025-Nov-01 00:00:00.0000, -3.282162257721242E+08, -4.532496836348946E+07, -3.836599035476537E+07,
2460987.500000000, A.D. 2025-Nov-08 00:00:00.0000, -3.234987305008397E+08, -5.432829850205712E+07, -3.925636325110831E+07,
2460994.500000000, A.D. 2025-Nov-15 00:00:00.0000, -3.183456693883795E+08, -6.325842813223547E+07, -4.009387109222548E+07,
2461001.500000000, A.D. 2025-Nov-22 00:00:00.0000, -3.127507453045469E+08, -7.210069825962541E+07, -4.087571837950301E+07,
2461008.500000000, A.D. 2025-Nov-29 00:00:00.0000, -3.067075247790595E+08, -8.083955653673419E+07, -4.159896337539458E+07,
2461015.500000000, A.D. 2025-Dec-06 00:00:00.0000, -3.002094588168290E+08, -8.945845887747130E+07, -4.226050539652936E+07,
2461022.500000000, A.D. 2025-Dec-13 00:00:00.0000, -2.932499115871448E+08, -9.793976300301021E+07, -4.285707123304997E+07,
2461029.500000000, A.D. 2025-Dec-20 00:00:00.0000, -2.858221950293444E+08, -1.062646116277964E+08, -4.338520089396784E+07,
2461036.500000000, A.D. 2025-Dec-27 00:00:00.0000, -2.779196123312043E+08, -1.144128012885174E+08, -4.384123234202196E+07,
2461043.500000000, A.D. 2026-Jan-03 00:00:00.0000, -2.695355140519078E+08, -1.223626359002686E+08, -4.422128512771033E+07,
2461050.500000000, A.D. 2026-Jan-10 00:00:00.0000, -2.606633696411858E+08, -1.300907640794615E+08, -4.452124301735705E+07,
2461057.500000000, A.D. 2026-Jan-17 00:00:00.0000, -2.512968576730615E+08, -1.375719985963995E+08, -4.473673572781479E+07,
2461064.500000000, A.D. 2026-Jan-24 00:00:00.0000, -2.414299791169879E+08, -1.447791161558731E+08, -4.486311993154851E+07,
2461071.500000000, A.D. 2026-Jan-31 00:00:00.0000, -2.310571990709656E+08, -1.516826357620545E+08, -4.489545979774987E+07,
2461078.500000000, A.D. 2026-Feb-07 00:00:00.0000, -2.201736236385694E+08, -1.582505741281182E+08, -4.482850749021064E+07,
2461085.500000000, A.D. 2026-Feb-14 00:00:00.0000, -2.087752200367803E+08, -1.644481768962295E+08, -4.465668426246694E+07,
2461092.500000000, A.D. 2026-Feb-21 00:00:00.0000, -1.968590898406831E+08, -1.702376244804471E+08, -4.437406303816017E+07,
2461099.500000000, A.D. 2026-Feb-28 00:00:00.0000, -1.844238091113550E+08, -1.755777118433959E+08, -4.397435357046828E+07,
2461106.500000000, A.D. 2026-Mar-07 00:00:00.0000, -1.714698529619794E+08, -1.804235063394872E+08, -4.345089196820154E+07,
2461113.500000000, A.D. 2026-Mar-14 00:00:00.0000, -1.580001206219412E+08, -1.847259907935944E+08, -4.279663756963548E+07,
2461120.500000000, A.D. 2026-Mar-21 00:00:00.0000, -1.440205818695768E+08, -1.884316977322429E+08, -4.200418058920031E+07,
2461127.500000000, A.D. 2026-Mar-28 00:00:00.0000, -1.295410736623186E+08, -1.914823483993974E+08, -4.106576504060411E+07,
2461134.500000000, A.D. 2026-Apr-04 00:00:00.0000, -1.145762786003935E+08, -1.938145206216024E+08, -3.997333339603236E+07,
2461141.500000000, A.D. 2026-Apr-11 00:00:00.0000, -9.914691962269536E+07, -1.953593809336414E+08, -3.871860160441586E+07,
2461148.500000000, A.D. 2026-Apr-18 00:00:00.0000, -8.328120738808642E+07, -1.960425326116354E+08, -3.729317571677478E+07,
2461155.500000000, A.D. 2026-Apr-25 00:00:00.0000, -6.701657524928720E+07, -1.957840536740522E+08, -3.568872455055450E+07,
2461162.500000000, A.D. 2026-May-02 00:00:00.0000, -5.040172838441669E+07, -1.944988282487900E+08, -3.389722639934859E+07,
2461169.500000000, A.D. 2026-May-09 00:00:00.0000, -3.349901375664230E+07, -1.920973111913787E+08, -3.191131134132729E+07,
2461176.500000000, A.D. 2026-May-16 00:00:00.0000, -1.638707935715992E+07, -1.884869077498915E+08, -2.972472334187672E+07,
2461183.500000000, A.D. 2026-May-23 00:00:00.0000, 8.362732797521227E+05, -1.835741918254971E+08, -2.733292637778515E+07,
2461190.500000000, A.D. 2026-May-30 00:00:00.0000, 1.805123830015703E+07, -1.772682187438273E+08, -2.473387366990528E+07,
2461197.500000000, A.D. 2026-Jun-06 00:00:00.0000, 3.511349765523172E+07, -1.694851916251041E+08, -2.192894560754495E+07,
2461204.500000000, A.D. 2026-Jun-13 00:00:00.0000, 5.185258605513485E+07, -1.601546713007730E+08, -1.892403443123496E+07,
2461211.500000000, A.D. 2026-Jun-20 00:00:00.0000, 6.807185508990106E+07, -1.492273426601511E+08, -1.573070776719371E+07,
2461218.500000000, A.D. 2026-Jun-27 00:00:00.0000, 8.355091699034935E+07, -1.366840290481161E+08, -1.236731980306384E+07,
2461225.500000000, A.D. 2026-Jul-04 00:00:00.0000, 9.805145392172296E+07, -1.225451613598828E+08, -8.859866205805913E+06,
2461232.500000000, A.D. 2026-Jul-11 00:00:00.0000, 1.113269945229638E+08, -1.068793268463063E+08, -5.242319490168504E+06,
2461239.500000000, A.D. 2026-Jul-18 00:00:00.0000, 1.231365806875399E+08, -8.980902840676370E+07, -1.556173131791968E+06,
2461246.500000000, A.D. 2026-Jul-25 00:00:00.0000, 1.332612068224699E+08, -7.151166677006283E+07, 2.150994709815070E+06,
2461253.500000000, A.D. 2026-Aug-01 00:00:00.0000, 1.415207801326727E+08, -5.221429424008248E+07, 5.827937756154768E+06,
2461260.500000000, A.D. 2026-Aug-08 00:00:00.0000, 1.477886086253923E+08, -3.218193817122003E+07, 9.422880310760800E+06,
2461267.500000000, A.D. 2026-Aug-15 00:00:00.0000, 1.520005500482201E+08, -1.170092482828624E+07, 1.288688826816746E+07,
2461274.500000000, A.D. 2026-Aug-22 00:00:00.0000, 1.541570804882908E+08, 8.939997760094970E+06, 1.617688697100135E+07,
2461281.500000000, A.D. 2026-Aug-29 00:00:00.0000, 1.543182774445133E+08, 2.946744596280365E+07, 1.925783440990883E+07,
2461288.500000000, A.D. 2026-Sep-05 00:00:00.0000, 1.525933454097641E+08, 4.963737382190053E+07, 2.210379983232153E+07,
$$EOE